[{"OBJECT_NAME":"STARLINK-33890","OBJECT_ID":"2025-189K","EPOCH":"2026-03-09T15:50:29.885568","MEAN_MOTION":15.30196266,"ECCENTRICITY":9.75e-5,"INCLINATION":53.1579,"RA_OF_ASC_NODE":206.7731,"ARG_OF_PERICENTER":72.2628,"MEAN_ANOMALY":287.8479,"EPHEMERIS_TYPE":0,"CLASSIFICATION_TYPE":"U","NORAD_CAT_ID":65332,"ELEMENT_SET_NO":999,"REV_AT_EPOCH":2990,"BSTAR":0.00080008462,"MEAN_MOTION_DOT":0.00023409,"MEAN_MOTION_DDOT":0},{"OBJECT_NAME":"COSMOS 2535 DEB","OBJECT_ID":"2019-039M","EPOCH":"2026-03-08T03:25:35.903424","MEAN_MOTION":15.28322551,"ECCENTRICITY":0.0014917,"INCLINATION":97.5619,"RA_OF_ASC_NODE":139.2722,"ARG_OF_PERICENTER":329.0964,"MEAN_ANOMALY":30.9396,"EPHEMERIS_TYPE":0,"CLASSIFICATION_TYPE":"U","NORAD_CAT_ID":44641,"ELEMENT_SET_NO":999,"REV_AT_EPOCH":35167,"BSTAR":0.0011539757,"MEAN_MOTION_DOT":0.0003196,"MEAN_MOTION_DDOT":0}]
